start=new Date('2023-03-31T00:00:00.000Z').valueOf();
sats=[{"GP_ID":"229182726","MEAN_MOTION_DDOT":"0.0000000000000","RA_OF_ASC_NODE":"284.3030","MEAN_MOTION":"15.08847399","OBJECT_TYPE":"PAYLOAD","LAUNCH_DATE":"2021-12-02","NORAD_CAT_ID":"49766","APOAPSIS":"540.617","SEMIMAJOR_AXIS":"6917.858","CENTER_NAME":"EARTH","OBJECT_ID":"2021-115AU","TIME_SYSTEM":"UTC","OBJECT_NAME":"STARLINK-3190","EPOCH":"2023-03-30T20:14:40.148736","DECAY_DATE":null,"FILE":"3875726","CLASSIFICATION_TYPE":"U","PERIOD":"95.437","TLE_LINE2":"2 49766  53.2165 284.3030 0001292 114.4743 245.6384 15.08847399 73415","EPHEMERIS_TYPE":"0","COUNTRY_CODE":"US","REF_FRAME":"TEME","PERIAPSIS":"538.829","MEAN_ANOMALY":"245.6384","BSTAR":"0.00065632000000","ARG_OF_PERICENTER":"114.4743","REV_AT_EPOCH":"7341","ELEMENT_SET_NO":"999","TLE_LINE1":"1 49766U 21115AU  23089.84352024  .00010175  00000-0  65632-3 0  9991","ECCENTRICITY":"0.00012920","MEAN_MOTION_DOT":"0.00010175","RCS_SIZE":"LARGE","MEAN_ELEMENT_THEORY":"SGP4","SITE":"AFETR","INCLINATION":"53.2165"},{"ECCENTRICITY":"0.00010880","MEAN_MOTION_DOT":"0.00001549","RCS_SIZE":"LARGE","MEAN_ELEMENT_THEORY":"SGP4","SITE":"AFETR","INCLINATION":"53.2143","PERIAPSIS":"538.998","MEAN_ANOMALY":"284.4586","BSTAR":"0.00011542000000","REV_AT_EPOCH":"7339","ARG_OF_PERICENTER":"75.6527","ELEMENT_SET_NO":"999","TLE_LINE1":"1 49767U 21115AV  23089.70272053  .00001549  00000-0  11542-3 0  9996","CENTER_NAME":"EARTH","OBJECT_ID":"2021-115AV","TIME_SYSTEM":"UTC","OBJECT_NAME":"STARLINK-3192","EPOCH":"2023-03-30T16:51:55.053792","DECAY_DATE":null,"FILE":"3875726","CLASSIFICATION_TYPE":"U","PERIOD":"95.438","TLE_LINE2":"2 49767  53.2143 284.9217 0001088  75.6527 284.4586 15.08838117 73396","EPHEMERIS_TYPE":"0","COUNTRY_CODE":"US","REF_FRAME":"TEME","GP_ID":"229183476","MEAN_MOTION_DDOT":"0.0000000000000","RA_OF_ASC_NODE":"284.9217","MEAN_MOTION":"15.08838117","OBJECT_TYPE":"PAYLOAD","LAUNCH_DATE":"2021-12-02","NORAD_CAT_ID":"49767","APOAPSIS":"540.504","SEMIMAJOR_AXIS":"6917.886"},{"NORAD_CAT_ID":"49768","APOAPSIS":"540.390","SEMIMAJOR_AXIS":"6917.843","LAUNCH_DATE":"2021-12-02","GP_ID":"229183705","MEAN_MOTION_DDOT":"0.0000000000000","OBJECT_TYPE":"PAYLOAD","MEAN_MOTION":"15.08852110","RA_OF_ASC_NODE":"284.5586","FILE":"3875726","PERIOD":"95.437","CLASSIFICATION_TYPE":"U","EPOCH":"2023-03-30T18:48:30.232800","DECAY_DATE":null,"COUNTRY_CODE":"US","REF_FRAME":"TEME","TLE_LINE2":"2 49768  53.2143 284.5586 0000985  91.6536 268.4569 15.08852110 73409","EPHEMERIS_TYPE":"0","CENTER_NAME":"EARTH","TIME_SYSTEM":"UTC","OBJECT_NAME":"STARLINK-3196","OBJECT_ID":"2021-115AW","BSTAR":"0.00087326000000","TLE_LINE1":"1 49768U 21115AW  23089.78368325  .00013642  00000-0  87326-3 0  9993","REV_AT_EPOCH":"7340","ARG_OF_PERICENTER":"91.6536","ELEMENT_SET_NO":"999","PERIAPSIS":"539.027","MEAN_ANOMALY":"268.4569","MEAN_ELEMENT_THEORY":"SGP4","INCLINATION":"53.2143","SITE":"AFETR","ECCENTRICITY":"0.00009850","RCS_SIZE":"LARGE","MEAN_MOTION_DOT":"0.00013642"},{"MEAN_MOTION_DOT":"0.00020375","RCS_SIZE":"LARGE","ECCENTRICITY":"0.00010320","SITE":"AFETR","INCLINATION":"53.2155","MEAN_ELEMENT_THEORY":"SGP4","MEAN_ANOMALY":"266.2463","PERIAPSIS":"538.999","ELEMENT_SET_NO":"999","REV_AT_EPOCH":"7340","ARG_OF_PERICENTER":"93.8647","TLE_LINE1":"1 49769U 21115AX  23089.78464517  .00020375  00000-0  12942-2 0  9996","BSTAR":"0.00129420000000","OBJECT_ID":"2021-115AX","OBJECT_NAME":"STARLINK-3208","TIME_SYSTEM":"UTC","CENTER_NAME":"EARTH","EPHEMERIS_TYPE":"0","TLE_LINE2":"2 49769  53.2155 284.6075 0001032  93.8647 266.2463 15.08850697 73405","COUNTRY_CODE":"US","REF_FRAME":"TEME","DECAY_DATE":null,"EPOCH":"2023-03-30T18:49:53.342688","PERIOD":"95.437","CLASSIFICATION_TYPE":"U","FILE":"3875726","MEAN_MOTION":"15.08850697","RA_OF_ASC_NODE":"284.6075","OBJECT_TYPE":"PAYLOAD","MEAN_MOTION_DDOT":"0.0000000000000","GP_ID":"229181975","LAUNCH_DATE":"2021-12-02","SEMIMAJOR_AXIS":"6917.848","NORAD_CAT_ID":"49769","APOAPSIS":"540.427"},{"SEMIMAJOR_AXIS":"6917.882","APOAPSIS":"540.645","NORAD_CAT_ID":"49770","LAUNCH_DATE":"2021-12-02","MEAN_MOTION_DDOT":"0.0000000000000","GP_ID":"229183226","OBJECT_TYPE":"PAYLOAD","RA_OF_ASC_NODE":"284.5724","MEAN_MOTION":"15.08839379","PERIOD":"95.438","CLASSIFICATION_TYPE":"U","FILE":"3875726","DECAY_DATE":null,"EPOCH":"2023-03-30T19:00:29.606112","COUNTRY_CODE":"US","REF_FRAME":"TEME","EPHEMERIS_TYPE":"0","TLE_LINE2":"2 49770  53.2160 284.5724 0001297  83.6225 276.4915 15.08839379 74528","CENTER_NAME":"EARTH","OBJECT_NAME":"STARLINK-3191","TIME_SYSTEM":"UTC","OBJECT_ID":"2021-115AY","BSTAR":"0.00012248000000","TLE_LINE1":"1 49770U 21115AY  23089.79200933  .00001662  00000-0  12248-3 0  9997","ELEMENT_SET_NO":"999","ARG_OF_PERICENTER":"83.6225","REV_AT_EPOCH":"7452","PERIAPSIS":"538.850","MEAN_ANOMALY":"276.4915","MEAN_ELEMENT_THEORY":"SGP4","INCLINATION":"53.2160","SITE":"AFETR","ECCENTRICITY":"0.00012970","RCS_SIZE":"LARGE","MEAN_MOTION_DOT":"0.00001662"},{"ELEMENT_SET_NO":"999","ARG_OF_PERICENTER":"90.2740","REV_AT_EPOCH":"7340","TLE_LINE1":"1 49771U 21115AZ  23089.79104104  .00024670  00000-0  15619-2 0  9999","BSTAR":"0.00156190000000","MEAN_ANOMALY":"269.8407","PERIAPSIS":"538.757","SITE":"AFETR","INCLINATION":"53.2157","MEAN_ELEMENT_THEORY":"SGP4","MEAN_MOTION_DOT":"0.00024670","RCS_SIZE":"LARGE","ECCENTRICITY":"0.00013470","LAUNCH_DATE":"2021-12-02","SEMIMAJOR_AXIS":"6917.824","APOAPSIS":"540.621","NORAD_CAT_ID":"49771","RA_OF_ASC_NODE":"284.5269","MEAN_MOTION":"15.08858362","OBJECT_TYPE":"PAYLOAD","MEAN_MOTION_DDOT":"0.0000000000000","GP_ID":"229182977","EPHEMERIS_TYPE":"0","TLE_LINE2":"2 49771  53.2157 284.5269 0001347  90.2740 269.8407 15.08858362 73402","REF_FRAME":"TEME","COUNTRY_CODE":"US","DECAY_DATE":null,"EPOCH":"2023-03-30T18:59:05.945856","CLASSIFICATION_TYPE":"U","PERIOD":"95.436","FILE":"3875726","OBJECT_ID":"2021-115AZ","OBJECT_NAME":"STARLINK-3201","TIME_SYSTEM":"UTC","CENTER_NAME":"EARTH"},{"TLE_LINE1":"1 50156U 21125A   23089.54267318  .00002503  00000-0  17526-3 0  9990","ELEMENT_SET_NO":"999","REV_AT_EPOCH":"7432","ARG_OF_PERICENTER":"185.1606","BSTAR":"0.00017526000000","MEAN_ANOMALY":"174.9377","PERIAPSIS":"539.079","INCLINATION":"53.2174","SITE":"AFWTR","MEAN_ELEMENT_THEORY":"SGP4","RCS_SIZE":"LARGE","MEAN_MOTION_DOT":"0.00002503","ECCENTRICITY":"0.00009680","SEMIMAJOR_AXIS":"6917.884","APOAPSIS":"540.418","NORAD_CAT_ID":"50156","LAUNCH_DATE":"2021-12-18","OBJECT_TYPE":"PAYLOAD","MEAN_MOTION":"15.08838941","RA_OF_ASC_NODE":"35.6423","MEAN_MOTION_DDOT":"0.0000000000000","GP_ID":"229184220","REF_FRAME":"TEME","COUNTRY_CODE":"US","EPHEMERIS_TYPE":"0","TLE_LINE2":"2 50156  53.2174  35.6423 0000968 185.1606 174.9377 15.08838941 74325","PERIOD":"95.438","CLASSIFICATION_TYPE":"U","FILE":"3875726","DECAY_DATE":null,"EPOCH":"2023-03-30T13:01:26.962752","OBJECT_NAME":"STARLINK-3317","TIME_SYSTEM":"UTC","OBJECT_ID":"2021-125A","CENTER_NAME":"EARTH"},{"RA_OF_ASC_NODE":"46.7229","MEAN_MOTION":"15.08852605","OBJECT_TYPE":"PAYLOAD","MEAN_MOTION_DDOT":"0.0000000000000","GP_ID":"229184242","LAUNCH_DATE":"2021-12-18","SEMIMAJOR_AXIS":"6917.842","NORAD_CAT_ID":"50157","APOAPSIS":"540.713","OBJECT_ID":"2021-125B","OBJECT_NAME":"STARLINK-3313","TIME_SYSTEM":"UTC","CENTER_NAME":"EARTH","EPHEMERIS_TYPE":"0","TLE_LINE2":"2 50157  53.2169  46.7229 0001455 120.2974 239.8162 15.08852605 74154","REF_FRAME":"TEME","COUNTRY_CODE":"US","DECAY_DATE":null,"EPOCH":"2023-03-30T07:14:18.181248","PERIOD":"95.437","CLASSIFICATION_TYPE":"U","FILE":"3875726","MEAN_ANOMALY":"239.8162","PERIAPSIS":"538.700","ELEMENT_SET_NO":"999","REV_AT_EPOCH":"7415","ARG_OF_PERICENTER":"120.2974","TLE_LINE1":"1 50157U 21125B   23089.30159932  .00007381  00000-0  48116-3 0  9995","BSTAR":"0.00048116000000","MEAN_MOTION_DOT":"0.00007381","RCS_SIZE":"LARGE","ECCENTRICITY":"0.00014550","SITE":"AFWTR","INCLINATION":"53.2169","MEAN_ELEMENT_THEORY":"SGP4"},{"MEAN_ELEMENT_THEORY":"SGP4","INCLINATION":"53.2159","SITE":"AFWTR","ECCENTRICITY":"0.00012300","RCS_SIZE":"LARGE","MEAN_MOTION_DOT":"0.00016801","BSTAR":"0.00107090000000","TLE_LINE1":"1 50158U 21125C   23089.15808428  .00016801  00000-0  10709-2 0  9993","ELEMENT_SET_NO":"999","REV_AT_EPOCH":"7415","ARG_OF_PERICENTER":"69.3511","PERIAPSIS":"538.865","MEAN_ANOMALY":"290.7613","CLASSIFICATION_TYPE":"U","PERIOD":"95.437","FILE":"3875726","DECAY_DATE":null,"EPOCH":"2023-03-30T03:47:38.481792","COUNTRY_CODE":"US","REF_FRAME":"TEME","EPHEMERIS_TYPE":"0","TLE_LINE2":"2 50158  53.2159  47.3685 0001230  69.3511 290.7613 15.08849543 74152","CENTER_NAME":"EARTH","OBJECT_NAME":"STARLINK-3309","TIME_SYSTEM":"UTC","OBJECT_ID":"2021-125C","SEMIMAJOR_AXIS":"6917.851","APOAPSIS":"540.567","NORAD_CAT_ID":"50158","LAUNCH_DATE":"2021-12-18","MEAN_MOTION_DDOT":"0.0000000000000","GP_ID":"229183993","OBJECT_TYPE":"PAYLOAD","RA_OF_ASC_NODE":"47.3685","MEAN_MOTION":"15.08849543"},{"TLE_LINE1":"1 50159U 21125D   23089.08912198  .00012711  00000-0  81529-3 0  9991","ELEMENT_SET_NO":"999","ARG_OF_PERICENTER":"99.2229","REV_AT_EPOCH":"7407","BSTAR":"0.00081529000000","MEAN_ANOMALY":"260.8952","PERIAPSIS":"538.590","INCLINATION":"53.2187","SITE":"AFWTR","MEAN_ELEMENT_THEORY":"SGP4","RCS_SIZE":"LARGE","MEAN_MOTION_DOT":"0.00012711","ECCENTRICITY":"0.00016700","SEMIMAJOR_AXIS":"6917.881","APOAPSIS":"540.901","NORAD_CAT_ID":"50159","LAUNCH_DATE":"2021-12-18","OBJECT_TYPE":"PAYLOAD","RA_OF_ASC_NODE":"47.6878","MEAN_MOTION":"15.08839915","MEAN_MOTION_DDOT":"0.0000000000000","GP_ID":"229185243","REF_FRAME":"TEME","COUNTRY_CODE":"US","EPHEMERIS_TYPE":"0","TLE_LINE2":"2 50159  53.2187  47.6878 0001670  99.2229 260.8952 15.08839915 74074","PERIOD":"95.438","CLASSIFICATION_TYPE":"U","FILE":"3875726","DECAY_DATE":null,"EPOCH":"2023-03-30T02:08:20.139072","OBJECT_NAME":"STARLINK-3297","TIME_SYSTEM":"UTC","OBJECT_ID":"2021-125D","CENTER_NAME":"EARTH"}];
